{
"type": "FeatureCollection",
"name": "beup_mplad_projects",
"features": [
{ "type": "Feature", "properties": { "id": null, "scheme": "BEUP", "project_code": "BEUP-21-NKT-85-1", "name": "Solar Street Light-Near Rustam Amer house", "mp_mla": "Shri. Puna Bhengra, MLA", "district": "Jalpaiguri", "block": "Matiali ", "gp": "Matiali Batabari No II ", "village": null, "work_type": "Solar Street Light", "amount": null, "status": "Proposed", "sanction_date": null, "completion_date": null, "remarks": null, "geometry_type": "Point" }, "geometry": { "type": "Point", "coordinates": [ 88.81537, 26.812196 ] } },
{ "type": "Feature", "properties": { "id": 1, "scheme": "BEUP", "project_code": "BEUP-001", "name": "Construction of Community Hall", "mp_mla": "Shri A. Roy, MP", "district": "Jalpaiguri", "block": "Mal", "gp": "Sample GP", "village": "Sample Village", "work_type": "Building", "amount": "2500000", "status": "Approved", "sanction_date": "2026-04-15", "completion_date": "", "remarks": "Demo record", "geometry_type": "Point" }, "geometry": { "type": "Point", "coordinates": [ 88.78, 26.65 ] } },
{ "type": "Feature", "properties": { "id": 2, "scheme": "MPLAD", "project_code": "MPLAD-001", "name": "Improvement of Rural Road", "mp_mla": "Smt. B. Sarkar, MLA", "district": "Jalpaiguri", "block": "Maynaguri", "gp": "Sample GP", "village": "Sample Village", "work_type": "Road", "amount": "1800000", "status": "Ongoing", "sanction_date": "2026-05-20", "completion_date": "", "remarks": "Demo record", "geometry_type": "Point" }, "geometry": { "type": "Point", "coordinates": [ 88.72, 26.55 ] } },
{ "type": "Feature", "properties": { "id": 3, "scheme": "BEUP", "project_code": "BEUP-002", "name": "Installation of Drinking Water Facility", "mp_mla": "Shri A. Roy, MP", "district": "Jalpaiguri", "block": "Dhupguri", "gp": "Sample GP", "village": "Sample Village", "work_type": "Water", "amount": "850000", "status": "Completed", "sanction_date": "2025-08-10", "completion_date": "2026-02-20", "remarks": "Demo record", "geometry_type": "Point" }, "geometry": { "type": "Point", "coordinates": [ 89.0, 26.58 ] } },
{ "type": "Feature", "properties": { "id": 4, "scheme": "MPLAD", "project_code": "MPLAD-002", "name": "Upgradation of Village Approach Road", "mp_mla": "Smt. B. Sarkar, MLA", "district": "Jalpaiguri", "block": "Mal", "gp": "Sample GP", "village": "Sample Village", "work_type": "Road", "amount": "3200000", "status": "Ongoing", "sanction_date": "2026-03-01", "completion_date": "", "remarks": "Demo line record", "geometry_type": "LineString" }, "geometry": { "type": "LineString", "coordinates": [ [ 88.7, 26.6 ], [ 88.72, 26.61 ], [ 88.74, 26.615 ], [ 88.76, 26.62 ] ] } },
{ "type": "Feature", "properties": { "id": 5, "scheme": "BEUP", "project_code": "BEUP-003", "name": "Renovation of Village Pond", "mp_mla": "Shri C. Barman, MLA", "district": "Jalpaiguri", "block": "Mal", "gp": "Sample GP", "village": "Sample Village", "work_type": "Water Body", "amount": "1200000", "status": "Proposed", "sanction_date": "", "completion_date": "", "remarks": "Demo polygon record", "geometry_type": "Polygon" }, "geometry": { "type": "Polygon", "coordinates": [ [ [ 88.775, 26.645 ], [ 88.782, 26.645 ], [ 88.782, 26.652 ], [ 88.775, 26.652 ], [ 88.775, 26.645 ] ] ] } },
{ "type": "Feature", "properties": { "id": 6, "scheme": "BEUP", "project_code": "11111111111111111111", "name": "bbbbbbbbbbbbbbbbbbbb", "mp_mla": "", "district": "", "block": "", "gp": "", "village": "", "work_type": "", "amount": "", "status": "Proposed", "sanction_date": "", "completion_date": "", "remarks": "", "geometry_type": "Point" }, "geometry": { "type": "Point", "coordinates": [ 89.030457, 26.926968 ] } },
{ "type": "Feature", "properties": { "id": 7, "scheme": "BEUP", "project_code": "9999", "name": "ccccc", "mp_mla": "", "district": "", "block": "", "gp": "", "village": "", "work_type": "", "amount": "", "status": "Proposed", "sanction_date": "", "completion_date": "", "remarks": "", "geometry_type": "LineString" }, "geometry": { "type": "LineString", "coordinates": [ [ 88.720093, 26.423849 ], [ 88.884888, 26.426309 ] ] } },
{ "type": "Feature", "properties": { "id": null, "scheme": "BEUP", "project_code": "BEUP-21-NKT-85-2", "name": "Solar Street Light-Near House Altav Husain", "mp_mla": "Shri. Puna Bhengra, MLA", "district": "Jalpaiguri", "block": "Matiali ", "gp": "Matiali Batabari No II ", "village": null, "work_type": "Solar Street Light", "amount": null, "status": "Proposed", "sanction_date": null, "completion_date": null, "remarks": null, "geometry_type": "Point" }, "geometry": { "type": "Point", "coordinates": [ 88.814866, 26.815172 ] } },
{ "type": "Feature", "properties": { "id": null, "scheme": "BEUP", "project_code": "BEUP-21-NKT-85-3", "name": "Solar Street Light-Near Kabristhan Colony para", "mp_mla": "Shri. Puna Bhengra, MLA", "district": "Jalpaiguri", "block": "Matiali ", "gp": "Matiali Batabari No II ", "village": null, "work_type": "Solar Street Light", "amount": null, "status": "Proposed", "sanction_date": null, "completion_date": null, "remarks": null, "geometry_type": "Point" }, "geometry": { "type": "Point", "coordinates": [ 88.814698, 26.813586 ] } },
{ "type": "Feature", "properties": { "id": null, "scheme": "BEUP", "project_code": "BEUP-21-NKT-85-4", "name": "Solar Street Light-Near Bhulu Ray house", "mp_mla": "Shri. Puna Bhengra, MLA", "district": "Jalpaiguri", "block": "Matiali ", "gp": "Matiali Batabari No II ", "village": null, "work_type": "Solar Street Light", "amount": null, "status": "Proposed", "sanction_date": null, "completion_date": null, "remarks": null, "geometry_type": "Point" }, "geometry": { "type": "Point", "coordinates": [ 88.814871, 26.811256 ] } },
{ "type": "Feature", "properties": { "id": null, "scheme": "BEUP", "project_code": "BEUP-21-NKT-85-5", "name": "Solar Street Light-Near Hori Ray house to Havli Para", "mp_mla": "Shri. Puna Bhengra, MLA", "district": "Jalpaiguri", "block": "Matiali ", "gp": "Matiali Batabari No II ", "village": null, "work_type": "Solar Street Light", "amount": null, "status": "Proposed", "sanction_date": null, "completion_date": null, "remarks": null, "geometry_type": "Point" }, "geometry": { "type": "Point", "coordinates": [ 88.816655, 26.808809 ] } },
{ "type": "Feature", "properties": { "id": null, "scheme": "BEUP", "project_code": "BEUP-21-NKT-85-6", "name": "Solar Street Light-Near Lakhiram Mahali House to Dashai Para", "mp_mla": "Shri. Puna Bhengra, MLA", "district": "Jalpaiguri", "block": "Matiali ", "gp": "Matiali Batabari No II ", "village": null, "work_type": "Solar Street Light", "amount": null, "status": "Proposed", "sanction_date": null, "completion_date": null, "remarks": "nearest the 28", "geometry_type": "Point" }, "geometry": { "type": "Point", "coordinates": [ 88.814761, 26.832991 ] } },
{ "type": "Feature", "properties": { "id": null, "scheme": "BEUP", "project_code": "BEUP-21-NKT-85-7", "name": "Solar Street Light-Near Bifai Oraon house to Gurba Dhura", "mp_mla": "Shri. Puna Bhengra, MLA", "district": "Jalpaiguri", "block": "Matiali ", "gp": "Matiali Batabari No II ", "village": null, "work_type": "Solar Street Light", "amount": null, "status": "Proposed", "sanction_date": null, "completion_date": null, "remarks": "open field", "geometry_type": "Point" }, "geometry": { "type": "Point", "coordinates": [ 88.814054, 26.849229 ] } },
{ "type": "Feature", "properties": { "id": null, "scheme": "BEUP", "project_code": "BEUP-21-NKT-85-8", "name": "Solar Street Light-Near Hori Mandir to Niten Para", "mp_mla": "Shri. Puna Bhengra, MLA", "district": "Jalpaiguri", "block": "Matiali ", "gp": "Matiali Batabari No II ", "village": null, "work_type": "Solar Street Light", "amount": null, "status": "Proposed", "sanction_date": null, "completion_date": null, "remarks": null, "geometry_type": "Point" }, "geometry": { "type": "Point", "coordinates": [ 88.807725, 26.833522 ] } },
{ "type": "Feature", "properties": { "id": null, "scheme": "BEUP", "project_code": "BEUP-21-NKT-85-9", "name": "Solar Street Light-Near Madan Lohar House to Niten Para at Part no. 21/86", "mp_mla": "Shri. Puna Bhengra, MLA", "district": "Jalpaiguri", "block": "Matiali ", "gp": "Matiali Batabari No II ", "village": null, "work_type": "Solar Street Light", "amount": null, "status": "Proposed", "sanction_date": null, "completion_date": null, "remarks": null, "geometry_type": "Point" }, "geometry": { "type": "Point", "coordinates": [ 88.807872, 26.832115 ] } },
{ "type": "Feature", "properties": { "id": null, "scheme": "BEUP", "project_code": "BEUP-21-NKT-85-10", "name": "Solar Street Light-Near Suren Oraon house to Murti Forest River at Part No. 21/87", "mp_mla": "Shri. Puna Bhengra, MLA", "district": "Jalpaiguri", "block": "Nagrakata ", "gp": "Matiali Batabari No II ", "village": null, "work_type": "Solar Street Light", "amount": null, "status": "Proposed", "sanction_date": null, "completion_date": null, "remarks": "Sulkapara GP of NKT BLOCK", "geometry_type": "Point" }, "geometry": { "type": "Point", "coordinates": [ 88.824662, 26.830058 ] } },
{ "type": "Feature", "properties": { "id": null, "scheme": "BEUP", "project_code": "BEUP-21-NKT-85-11", "name": "Solar Street Light-Near Muthu Sarma house to Murti Forest River Part No.21/87", "mp_mla": "Shri. Puna Bhengra, MLA", "district": "Jalpaiguri", "block": "Nagrakata ", "gp": "Matiali Batabari No II ", "village": null, "work_type": "Solar Street Light", "amount": null, "status": "Proposed", "sanction_date": null, "completion_date": null, "remarks": "Sulkapara GP of NKT BLOCK", "geometry_type": "Point" }, "geometry": { "type": "Point", "coordinates": [ 88.825687, 26.838956 ] } },
{ "type": "Feature", "properties": { "id": null, "scheme": "BEUP", "project_code": "BEUP-21-NKT-85-12", "name": "Solar Street Light-Near Maloti Roy hosue to Gobinda Para", "mp_mla": "Shri. Puna Bhengra, MLA", "district": "Jalpaiguri", "block": "Matiali ", "gp": "Matiali Batabari No II ", "village": null, "work_type": "Solar Street Light", "amount": null, "status": "Proposed", "sanction_date": null, "completion_date": null, "remarks": "blank area", "geometry_type": "Point" }, "geometry": { "type": "Point", "coordinates": [ 88.815233, 26.835533 ] } },
{ "type": "Feature", "properties": { "id": null, "scheme": "BEUP", "project_code": "BEUP-21-NKT-85-13", "name": "Solar Street Light-Near Moikan house to School Para. at Part No. 21/84", "mp_mla": "Shri. Puna Bhengra, MLA", "district": "Jalpaiguri", "block": "Matiali ", "gp": "Matiali Batabari No II ", "village": null, "work_type": "Solar Street Light", "amount": null, "status": "Proposed", "sanction_date": null, "completion_date": null, "remarks": null, "geometry_type": "Point" }, "geometry": { "type": "Point", "coordinates": [ 88.81508, 26.8381 ] } },
{ "type": "Feature", "properties": { "id": null, "scheme": "BEUP", "project_code": "BEUP-21-NKT-85-14", "name": "Solar Street Light-Near Bishal Kumar house to Gobind Para", "mp_mla": "Shri. Puna Bhengra, MLA", "district": "Jalpaiguri", "block": "Matiali ", "gp": "Matiali Batabari No II ", "village": null, "work_type": "Solar Street Light", "amount": null, "status": "Proposed", "sanction_date": null, "completion_date": null, "remarks": null, "geometry_type": "Point" }, "geometry": { "type": "Point", "coordinates": [ 88.81533, 26.835346 ] } },
{ "type": "Feature", "properties": { "id": null, "scheme": "BEUP", "project_code": "BEUP-21-NKT-85-15", "name": "Solar Street Light-Near Pint house to Dasai Para. at part No. 21/86", "mp_mla": "Shri. Puna Bhengra, MLA", "district": "Jalpaiguri", "block": "Matiali ", "gp": "Matiali Batabari No II ", "village": null, "work_type": "Solar Street Light", "amount": null, "status": "Proposed", "sanction_date": null, "completion_date": null, "remarks": null, "geometry_type": "Point" }, "geometry": { "type": "Point", "coordinates": [ 88.814053, 26.834766 ] } },
{ "type": "Feature", "properties": { "id": null, "scheme": "BEUP", "project_code": "BEUP-21-NKT-85-16", "name": "Solar Street Light-Near Mamun Ray house to Panchayat Para at part NO.21/93", "mp_mla": "Shri. Puna Bhengra, MLA", "district": "Jalpaiguri", "block": "Matiali ", "gp": "Matiali Batabari No II ", "village": null, "work_type": "Solar Street Light", "amount": null, "status": "Proposed", "sanction_date": null, "completion_date": null, "remarks": null, "geometry_type": "Point" }, "geometry": { "type": "Point", "coordinates": [ 88.80191, 26.81616 ] } },
{ "type": "Feature", "properties": { "id": null, "scheme": "BEUP", "project_code": "BEUP-21-NKT-85-17", "name": "Solar Street Light-Kabirstan Colony 2 No", "mp_mla": "Shri. Puna Bhengra, MLA", "district": "Jalpaiguri", "block": "Matiali ", "gp": "Matiali Batabari No II ", "village": null, "work_type": "Solar Street Light", "amount": null, "status": "Proposed", "sanction_date": null, "completion_date": null, "remarks": "blank area", "geometry_type": "Point" }, "geometry": { "type": "Point", "coordinates": [ 88.814502, 26.813184 ] } },
{ "type": "Feature", "properties": { "id": null, "scheme": "BEUP", "project_code": "BEUP-21-NKT-85-18", "name": "Solar Street Light-Near Pratima ray house to Purbe batabari", "mp_mla": "Shri. Puna Bhengra, MLA", "district": "Jalpaiguri", "block": "Matiali ", "gp": "Matiali Batabari No II ", "village": null, "work_type": "Solar Street Light", "amount": null, "status": "Proposed", "sanction_date": null, "completion_date": null, "remarks": null, "geometry_type": "Point" }, "geometry": { "type": "Point", "coordinates": [ 88.803706, 26.816032 ] } },
{ "type": "Feature", "properties": { "id": null, "scheme": "BEUP", "project_code": "BEUP-21-NKT-85-19", "name": "Solar Street Light-Near Manju Md house to Purbe Batabari at part no 21/93", "mp_mla": "Shri. Puna Bhengra, MLA", "district": "Jalpaiguri", "block": "Matiali ", "gp": "Matiali Batabari No II ", "village": null, "work_type": "Solar Street Light", "amount": null, "status": "Proposed", "sanction_date": null, "completion_date": null, "remarks": null, "geometry_type": "Point" }, "geometry": { "type": "Point", "coordinates": [ 88.804432, 26.817794 ] } },
{ "type": "Feature", "properties": { "id": null, "scheme": "BEUP", "project_code": "BEUP-21-NKT-85-20", "name": "Solar Street Light-Near Ajoy ray house 2 no GP", "mp_mla": "Shri. Puna Bhengra, MLA", "district": "Jalpaiguri", "block": "Matiali ", "gp": "Matiali Batabari No II ", "village": null, "work_type": "Solar Street Light", "amount": null, "status": "Proposed", "sanction_date": null, "completion_date": null, "remarks": null, "geometry_type": "Point" }, "geometry": { "type": "Point", "coordinates": [ 88.80451, 26.814843 ] } },
{ "type": "Feature", "properties": { "id": null, "scheme": "BEUP", "project_code": "BEUP-21-NKT-85-21", "name": "Solar Street Light-Rafik Alam house 2 No GP", "mp_mla": "Shri. Puna Bhengra, MLA", "district": "Jalpaiguri", "block": "Matiali ", "gp": "Matiali Batabari No II ", "village": null, "work_type": "Solar Street Light", "amount": null, "status": "Proposed", "sanction_date": null, "completion_date": null, "remarks": "same place 64", "geometry_type": "Point" }, "geometry": { "type": "Point", "coordinates": [ 88.814836, 26.813453 ] } },
{ "type": "Feature", "properties": { "id": null, "scheme": "BEUP", "project_code": "BEUP-21-NKT-85-22", "name": "Solar Street Light-Near Aptabbun house 2 No GP", "mp_mla": "Shri. Puna Bhengra, MLA", "district": "Jalpaiguri", "block": "Matiali ", "gp": "Matiali Batabari No II ", "village": null, "work_type": "Solar Street Light", "amount": null, "status": "Proposed", "sanction_date": null, "completion_date": null, "remarks": null, "geometry_type": "Point" }, "geometry": { "type": "Point", "coordinates": [ 88.814438, 26.815336 ] } },
{ "type": "Feature", "properties": { "id": null, "scheme": "BEUP", "project_code": "BEUP-21-NKT-85-23", "name": "Solar Street Light-Near Bulbul gani house to school para", "mp_mla": "Shri. Puna Bhengra, MLA", "district": "Jalpaiguri", "block": "Matiali ", "gp": "Matiali Batabari No II ", "village": null, "work_type": "Solar Street Light", "amount": null, "status": "Proposed", "sanction_date": null, "completion_date": null, "remarks": null, "geometry_type": "Point" }, "geometry": { "type": "Point", "coordinates": [ 88.799759, 26.82101 ] } },
{ "type": "Feature", "properties": { "id": null, "scheme": "BEUP", "project_code": "BEUP-21-NKT-85-24", "name": "Solar Street Light-Gulmohar Resort 2 No GP", "mp_mla": "Shri. Puna Bhengra, MLA", "district": "Jalpaiguri", "block": "Matiali ", "gp": "Matiali Batabari No II ", "village": null, "work_type": "Solar Street Light", "amount": null, "status": "Proposed", "sanction_date": null, "completion_date": null, "remarks": null, "geometry_type": "Point" }, "geometry": { "type": "Point", "coordinates": [ 88.807859, 26.807426 ] } },
{ "type": "Feature", "properties": { "id": null, "scheme": "BEUP", "project_code": "BEUP-21-NKT-85-25", "name": "Solar Street Light-Near Noor islam house 2 No GP", "mp_mla": "Shri. Puna Bhengra, MLA", "district": "Jalpaiguri", "block": "Matiali ", "gp": "Matiali Batabari No II ", "village": null, "work_type": "Solar Street Light", "amount": null, "status": "Proposed", "sanction_date": null, "completion_date": null, "remarks": "blank area", "geometry_type": "Point" }, "geometry": { "type": "Point", "coordinates": [ 88.815286, 26.811923 ] } },
{ "type": "Feature", "properties": { "id": null, "scheme": "BEUP", "project_code": "BEUP-21-NKT-85-26", "name": "Solar Street Light-Near Rajib Roy house to Netin Para at Part No. 21/86", "mp_mla": "Shri. Puna Bhengra, MLA", "district": "Jalpaiguri", "block": "Matiali ", "gp": "Matiali Batabari No II ", "village": null, "work_type": "Solar Street Light", "amount": null, "status": "Proposed", "sanction_date": null, "completion_date": null, "remarks": null, "geometry_type": "Point" }, "geometry": { "type": "Point", "coordinates": [ 88.810017, 26.828393 ] } },
{ "type": "Feature", "properties": { "id": null, "scheme": "BEUP", "project_code": "BEUP-21-NKT-85-27", "name": "Solar Street Light-Near Murti Forest River to 2 GP at Part No. 21/87", "mp_mla": "Shri. Puna Bhengra, MLA", "district": "Jalpaiguri", "block": "Nagrakata ", "gp": "Matiali Batabari No II ", "village": null, "work_type": "Solar Street Light", "amount": null, "status": "Proposed", "sanction_date": null, "completion_date": null, "remarks": "Sulkapara GP of NKT BLOCK", "geometry_type": "Point" }, "geometry": { "type": "Point", "coordinates": [ 88.826007, 26.840636 ] } },
{ "type": "Feature", "properties": { "id": null, "scheme": "BEUP", "project_code": "BEUP-21-NKT-85-28", "name": "Solar Street Light-Near Kapi Mahali house to Modi Para at Part No. 21/86", "mp_mla": "Shri. Puna Bhengra, MLA", "district": "Jalpaiguri", "block": "Matiali ", "gp": "Matiali Batabari No II ", "village": null, "work_type": "Solar Street Light", "amount": null, "status": "Proposed", "sanction_date": null, "completion_date": null, "remarks": "nearest the 6", "geometry_type": "Point" }, "geometry": { "type": "Point", "coordinates": [ 88.814748, 26.832991 ] } },
{ "type": "Feature", "properties": { "id": null, "scheme": "BEUP", "project_code": "BEUP-21-NKT-85-29", "name": "Solar Street Light-Near Aminul Islam house to Ajgar dhura at Part No. 21/84", "mp_mla": "Shri. Puna Bhengra, MLA", "district": "Jalpaiguri", "block": "Matiali ", "gp": "Matiali Batabari No II ", "village": null, "work_type": "Solar Street Light", "amount": null, "status": "Proposed", "sanction_date": null, "completion_date": null, "remarks": null, "geometry_type": "Point" }, "geometry": { "type": "Point", "coordinates": [ 88.815681, 26.847264 ] } },
{ "type": "Feature", "properties": { "id": null, "scheme": "BEUP", "project_code": "BEUP-21-NKT-85-30", "name": "Solar Street Light-Near Dipak oraon house to Murti Forest Basti part Part No. 21/87", "mp_mla": "Shri. Puna Bhengra, MLA", "district": "Jalpaiguri", "block": "Nagrakata ", "gp": "Matiali Batabari No II ", "village": null, "work_type": "Solar Street Light", "amount": null, "status": "Proposed", "sanction_date": null, "completion_date": null, "remarks": "Sulkapara GP of NKT BLOCK", "geometry_type": "Point" }, "geometry": { "type": "Point", "coordinates": [ 88.824443, 26.820973 ] } },
{ "type": "Feature", "properties": { "id": null, "scheme": "BEUP", "project_code": "BEUP-21-NKT-85-31", "name": "Solar Street Light-Near Rosid alam house to Alip Para at Part No. 21/87", "mp_mla": "Shri. Puna Bhengra, MLA", "district": "Jalpaiguri", "block": "Matiali ", "gp": "Matiali Batabari No II ", "village": null, "work_type": "Solar Street Light", "amount": null, "status": "Proposed", "sanction_date": null, "completion_date": null, "remarks": null, "geometry_type": "Point" }, "geometry": { "type": "Point", "coordinates": [ 88.820999, 26.830812 ] } },
{ "type": "Feature", "properties": { "id": null, "scheme": "BEUP", "project_code": "BEUP-21-NKT-85-32", "name": "Solar Street Light-Near Kolpara roy house to Anchol Para at Part No. 21/84", "mp_mla": "Shri. Puna Bhengra, MLA", "district": "Jalpaiguri", "block": "Matiali ", "gp": "Matiali Batabari No II ", "village": null, "work_type": "Solar Street Light", "amount": null, "status": "Proposed", "sanction_date": null, "completion_date": null, "remarks": null, "geometry_type": "Point" }, "geometry": { "type": "Point", "coordinates": [ 88.81206, 26.837159 ] } },
{ "type": "Feature", "properties": { "id": null, "scheme": "BEUP", "project_code": "BEUP-21-NKT-85-33", "name": "Solar Street Light-Near Shemol Roy house to Murti Forest Basti at Part No. 21/87", "mp_mla": "Shri. Puna Bhengra, MLA", "district": "Jalpaiguri", "block": "Matiali ", "gp": "Matiali Batabari No II ", "village": null, "work_type": "Solar Street Light", "amount": null, "status": "Proposed", "sanction_date": null, "completion_date": null, "remarks": null, "geometry_type": "Point" }, "geometry": { "type": "Point", "coordinates": [ 88.823242, 26.832804 ] } },
{ "type": "Feature", "properties": { "id": null, "scheme": "BEUP", "project_code": "BEUP-21-NKT-85-34", "name": "Solar Street Light-Near Ragu oraon house to Nikhil Para, Part No. 21/87", "mp_mla": "Shri. Puna Bhengra, MLA", "district": "Jalpaiguri", "block": "Matiali ", "gp": "Matiali Batabari No II ", "village": null, "work_type": "Solar Street Light", "amount": null, "status": "Proposed", "sanction_date": null, "completion_date": null, "remarks": null, "geometry_type": "Point" }, "geometry": { "type": "Point", "coordinates": [ 88.823331, 26.833709 ] } },
{ "type": "Feature", "properties": { "id": null, "scheme": "BEUP", "project_code": "BEUP-21-NKT-85-35", "name": "Solar Street Light-Near Hawara Oraon house to Murti Forest Basti part No. 21/87", "mp_mla": "Shri. Puna Bhengra, MLA", "district": "Jalpaiguri", "block": "Nagrakata ", "gp": "Matiali Batabari No II ", "village": null, "work_type": "Solar Street Light", "amount": null, "status": "Proposed", "sanction_date": null, "completion_date": null, "remarks": "Sulkapara GP of NKT BLOCK", "geometry_type": "Point" }, "geometry": { "type": "Point", "coordinates": [ 88.825846, 26.824338 ] } },
{ "type": "Feature", "properties": { "id": null, "scheme": "BEUP", "project_code": "BEUP-21-NKT-85-36", "name": "Solar Street Light-Near Somiran Das house to post office para, at part no. 21/94", "mp_mla": "Shri. Puna Bhengra, MLA", "district": "Jalpaiguri", "block": "Matiali ", "gp": "Matiali Batabari No II ", "village": null, "work_type": "Solar Street Light", "amount": null, "status": "Proposed", "sanction_date": null, "completion_date": null, "remarks": null, "geometry_type": "Point" }, "geometry": { "type": "Point", "coordinates": [ 88.796657, 26.823892 ] } },
{ "type": "Feature", "properties": { "id": null, "scheme": "BEUP", "project_code": "BEUP-21-NKT-85-37", "name": "Solar Street Light-Near Hori Mandir at Part No. 21/94", "mp_mla": "Shri. Puna Bhengra, MLA", "district": "Jalpaiguri", "block": "Matiali ", "gp": "Matiali Batabari No II ", "village": null, "work_type": "Solar Street Light", "amount": null, "status": "Proposed", "sanction_date": null, "completion_date": null, "remarks": null, "geometry_type": "Point" }, "geometry": { "type": "Point", "coordinates": [ 88.803822, 26.811373 ] } },
{ "type": "Feature", "properties": { "id": null, "scheme": "BEUP", "project_code": "BEUP-21-NKT-85-38", "name": "Solar Street Light-Near Rashal Bhujel house to Etha Bhata at part no. 21/94", "mp_mla": "Shri. Puna Bhengra, MLA", "district": "Jalpaiguri", "block": "Matiali ", "gp": "Matiali Batabari No II ", "village": null, "work_type": "Solar Street Light", "amount": null, "status": "Proposed", "sanction_date": null, "completion_date": null, "remarks": null, "geometry_type": "Point" }, "geometry": { "type": "Point", "coordinates": [ 88.795083, 26.810972 ] } },
{ "type": "Feature", "properties": { "id": null, "scheme": "BEUP", "project_code": "BEUP-21-NKT-85-39", "name": "Solar Street Light-Near Depak Sarma house to Debu Dhura at part no. 21/94", "mp_mla": "Shri. Puna Bhengra, MLA", "district": "Jalpaiguri", "block": "Matiali ", "gp": "Matiali Batabari No II ", "village": null, "work_type": "Solar Street Light", "amount": null, "status": "Proposed", "sanction_date": null, "completion_date": null, "remarks": null, "geometry_type": "Point" }, "geometry": { "type": "Point", "coordinates": [ 88.794366, 26.8077 ] } },
{ "type": "Feature", "properties": { "id": null, "scheme": "BEUP", "project_code": "BEUP-21-NKT-85-40", "name": "Solar Street Light-Near Basha Alam house to Naindo Para, at part 21/85", "mp_mla": "Shri. Puna Bhengra, MLA", "district": "Jalpaiguri", "block": "Matiali ", "gp": "Matiali Batabari No II ", "village": null, "work_type": "Solar Street Light", "amount": null, "status": "Proposed", "sanction_date": null, "completion_date": null, "remarks": null, "geometry_type": "Point" }, "geometry": { "type": "Point", "coordinates": [ 88.818404, 26.841926 ] } },
{ "type": "Feature", "properties": { "id": null, "scheme": "BEUP", "project_code": "BEUP-21-NKT-85-41", "name": "Solar Street Light-Near Sudeep Oraon house to Debu Dhura at Part No. 21/94", "mp_mla": "Shri. Puna Bhengra, MLA", "district": "Jalpaiguri", "block": "Matiali ", "gp": "Matiali Batabari No II ", "village": null, "work_type": "Solar Street Light", "amount": null, "status": "Proposed", "sanction_date": null, "completion_date": null, "remarks": "paddy filed", "geometry_type": "Point" }, "geometry": { "type": "Point", "coordinates": [ 88.796554, 26.80739 ] } },
{ "type": "Feature", "properties": { "id": null, "scheme": "BEUP", "project_code": "BEUP-21-NKT-85-42", "name": "Solar Street Light-Near Sani Mandir to Chupri para at Part No 21/94", "mp_mla": "Shri. Puna Bhengra, MLA", "district": "Jalpaiguri", "block": "Matiali ", "gp": "Matiali Batabari No II ", "village": null, "work_type": "Solar Street Light", "amount": null, "status": "Proposed", "sanction_date": null, "completion_date": null, "remarks": null, "geometry_type": "Point" }, "geometry": { "type": "Point", "coordinates": [ 88.802814, 26.810579 ] } },
{ "type": "Feature", "properties": { "id": null, "scheme": "BEUP", "project_code": "BEUP-21-NKT-85-43", "name": "Solar Street Light-Near Sudeep oraon house to Beng para pmb road at part no. 21/94", "mp_mla": "Shri. Puna Bhengra, MLA", "district": "Jalpaiguri", "block": "Matiali ", "gp": "Matiali Batabari No II ", "village": null, "work_type": "Solar Street Light", "amount": null, "status": "Proposed", "sanction_date": null, "completion_date": null, "remarks": null, "geometry_type": "Point" }, "geometry": { "type": "Point", "coordinates": [ 88.791865, 26.81593 ] } },
{ "type": "Feature", "properties": { "id": null, "scheme": "BEUP", "project_code": "BEUP-21-NKT-85-44", "name": "Solar Street Light-Near Sofiyar rahaman house to Jafaikona at part No. 21/94", "mp_mla": "Shri. Puna Bhengra, MLA", "district": "Jalpaiguri", "block": "Matiali ", "gp": "Matiali Batabari No II ", "village": null, "work_type": "Solar Street Light", "amount": null, "status": "Proposed", "sanction_date": null, "completion_date": null, "remarks": "nearest to 73", "geometry_type": "Point" }, "geometry": { "type": "Point", "coordinates": [ 88.80011, 26.804966 ] } },
{ "type": "Feature", "properties": { "id": null, "scheme": "BEUP", "project_code": "BEUP-21-NKT-85-45", "name": "Solar Street Light-Near Sabina Khatun house to Poschim para at part no 21/94", "mp_mla": "Shri. Puna Bhengra, MLA", "district": "Jalpaiguri", "block": "Matiali ", "gp": "Matiali Batabari No II ", "village": null, "work_type": "Solar Street Light", "amount": null, "status": "Proposed", "sanction_date": null, "completion_date": null, "remarks": null, "geometry_type": "Point" }, "geometry": { "type": "Point", "coordinates": [ 88.794929, 26.82087 ] } },
{ "type": "Feature", "properties": { "id": null, "scheme": "BEUP", "project_code": "BEUP-21-NKT-85-46", "name": "Solar Street Light-Near Naresh Roy house to Bhandani Para part no. 21/91", "mp_mla": "Shri. Puna Bhengra, MLA", "district": "Jalpaiguri", "block": "Matiali ", "gp": "Matiali Batabari No II ", "village": null, "work_type": "Solar Street Light", "amount": null, "status": "Proposed", "sanction_date": null, "completion_date": null, "remarks": null, "geometry_type": "Point" }, "geometry": { "type": "Point", "coordinates": [ 88.804571, 26.813939 ] } },
{ "type": "Feature", "properties": { "id": null, "scheme": "BEUP", "project_code": "BEUP-21-NKT-85-47", "name": "Solar Street Light-Near Konika Roy house to Bhandani Para at part no. 21/91", "mp_mla": "Shri. Puna Bhengra, MLA", "district": "Jalpaiguri", "block": "Matiali ", "gp": "Matiali Batabari No II ", "village": null, "work_type": "Solar Street Light", "amount": null, "status": "Proposed", "sanction_date": null, "completion_date": null, "remarks": null, "geometry_type": "Point" }, "geometry": { "type": "Point", "coordinates": [ 88.805557, 26.813859 ] } },
{ "type": "Feature", "properties": { "id": null, "scheme": "BEUP", "project_code": "BEUP-21-NKT-85-48", "name": "Solar Street Light-Near Alam house to Muchi para, at part no. 21/91", "mp_mla": "Shri. Puna Bhengra, MLA", "district": "Jalpaiguri", "block": "Matiali ", "gp": "Matiali Batabari No II ", "village": null, "work_type": "Solar Street Light", "amount": null, "status": "Proposed", "sanction_date": null, "completion_date": null, "remarks": null, "geometry_type": "Point" }, "geometry": { "type": "Point", "coordinates": [ 88.801688, 26.805839 ] } },
{ "type": "Feature", "properties": { "id": null, "scheme": "BEUP", "project_code": "BEUP-21-NKT-85-49", "name": "Solar Street Light-Near Shupen house to Nando para at part no. 21/85", "mp_mla": "Shri. Puna Bhengra, MLA", "district": "Jalpaiguri", "block": "Matiali ", "gp": "Matiali Batabari No II ", "village": null, "work_type": "Solar Street Light", "amount": null, "status": "Proposed", "sanction_date": null, "completion_date": null, "remarks": null, "geometry_type": "Point" }, "geometry": { "type": "Point", "coordinates": [ 88.820212, 26.842144 ] } },
{ "type": "Feature", "properties": { "id": null, "scheme": "BEUP", "project_code": "BEUP-21-NKT-85-50", "name": "Solar Street Light-Near Bimol ray house to Panchayat para at part no 21/88", "mp_mla": "Shri. Puna Bhengra, MLA", "district": "Jalpaiguri", "block": "Matiali ", "gp": "Matiali Batabari No II ", "village": null, "work_type": "Solar Street Light", "amount": null, "status": "Proposed", "sanction_date": null, "completion_date": null, "remarks": null, "geometry_type": "Point" }, "geometry": { "type": "Point", "coordinates": [ 88.820073, 26.812852 ] } },
{ "type": "Feature", "properties": { "id": null, "scheme": "BEUP", "project_code": "BEUP-21-NKT-85-51", "name": "Solar Street Light-Near Majidual alam house to mamta para at part no21/89", "mp_mla": "Shri. Puna Bhengra, MLA", "district": "Jalpaiguri", "block": "Matiali ", "gp": "Matiali Batabari No II ", "village": null, "work_type": "Solar Street Light", "amount": null, "status": "Proposed", "sanction_date": null, "completion_date": null, "remarks": null, "geometry_type": "Point" }, "geometry": { "type": "Point", "coordinates": [ 88.813572, 26.824007 ] } },
{ "type": "Feature", "properties": { "id": null, "scheme": "BEUP", "project_code": "BEUP-21-NKT-85-52", "name": "Solar Street Light-Near rabbu Hussain to Paschim para at part no 21/89", "mp_mla": "Shri. Puna Bhengra, MLA", "district": "Jalpaiguri", "block": "Matiali ", "gp": "Matiali Batabari No II ", "village": null, "work_type": "Solar Street Light", "amount": null, "status": "Proposed", "sanction_date": null, "completion_date": null, "remarks": null, "geometry_type": "Point" }, "geometry": { "type": "Point", "coordinates": [ 88.813056, 26.82382 ] } },
{ "type": "Feature", "properties": { "id": null, "scheme": "BEUP", "project_code": "BEUP-21-NKT-85-53", "name": "Solar Street Light-Near Hamul Islam to Nus para at part no 21/89", "mp_mla": "Shri. Puna Bhengra, MLA", "district": "Jalpaiguri", "block": "Matiali ", "gp": "Matiali Batabari No II ", "village": null, "work_type": "Solar Street Light", "amount": null, "status": "Proposed", "sanction_date": null, "completion_date": null, "remarks": null, "geometry_type": "Point" }, "geometry": { "type": "Point", "coordinates": [ 88.813157, 26.817011 ] } },
{ "type": "Feature", "properties": { "id": null, "scheme": "BEUP", "project_code": "BEUP-21-NKT-85-54", "name": "Solar Street Light-Near Mahakal Mandir", "mp_mla": "Shri. Puna Bhengra, MLA", "district": "Jalpaiguri", "block": "Matiali ", "gp": "Matiali Batabari No II ", "village": null, "work_type": "Solar Street Light", "amount": null, "status": "Proposed", "sanction_date": null, "completion_date": null, "remarks": null, "geometry_type": "Point" }, "geometry": { "type": "Point", "coordinates": [ 88.820334, 26.808246 ] } },
{ "type": "Feature", "properties": { "id": null, "scheme": "BEUP", "project_code": "BEUP-21-NKT-85-55", "name": "Solar Street Light-Near Dipak Roy house to Holdiya para at part no 21/88", "mp_mla": "Shri. Puna Bhengra, MLA", "district": "Jalpaiguri", "block": "Matiali ", "gp": "Matiali Batabari No II ", "village": null, "work_type": "Solar Street Light", "amount": null, "status": "Proposed", "sanction_date": null, "completion_date": null, "remarks": null, "geometry_type": "Point" }, "geometry": { "type": "Point", "coordinates": [ 88.817546, 26.819087 ] } },
{ "type": "Feature", "properties": { "id": null, "scheme": "BEUP", "project_code": "BEUP-21-NKT-85-56", "name": "Solar Street Light-Near Shubol House", "mp_mla": "Shri. Puna Bhengra, MLA", "district": "Jalpaiguri", "block": "Matiali ", "gp": "Matiali Batabari No II ", "village": null, "work_type": "Solar Street Light", "amount": null, "status": "Proposed", "sanction_date": null, "completion_date": null, "remarks": null, "geometry_type": "Point" }, "geometry": { "type": "Point", "coordinates": [ 88.806094, 26.812712 ] } },
{ "type": "Feature", "properties": { "id": null, "scheme": "BEUP", "project_code": "BEUP-21-NKT-85-57", "name": "Solar Street Light-Near Aliar Rahaman house to Colunj para at part no. 21/94", "mp_mla": "Shri. Puna Bhengra, MLA", "district": "Jalpaiguri", "block": "Matiali ", "gp": "Matiali Batabari No II ", "village": null, "work_type": "Solar Street Light", "amount": null, "status": "Proposed", "sanction_date": null, "completion_date": null, "remarks": null, "geometry_type": "Point" }, "geometry": { "type": "Point", "coordinates": [ 88.794672, 26.823298 ] } },
{ "type": "Feature", "properties": { "id": null, "scheme": "BEUP", "project_code": "BEUP-21-NKT-85-58", "name": "Solar Street Light-Near Sunil oraon house to school para at part no. 21/93", "mp_mla": "Shri. Puna Bhengra, MLA", "district": "Jalpaiguri", "block": "Matiali ", "gp": "Matiali Batabari No II ", "village": null, "work_type": "Solar Street Light", "amount": null, "status": "Proposed", "sanction_date": null, "completion_date": null, "remarks": null, "geometry_type": "Point" }, "geometry": { "type": "Point", "coordinates": [ 88.806787, 26.820639 ] } },
{ "type": "Feature", "properties": { "id": null, "scheme": "BEUP", "project_code": "BEUP-21-NKT-85-59", "name": "Solar Street Light-Near Sahib 2 no GP", "mp_mla": "Shri. Puna Bhengra, MLA", "district": "Jalpaiguri", "block": "Matiali ", "gp": "Matiali Batabari No II ", "village": null, "work_type": "Solar Street Light", "amount": null, "status": "Proposed", "sanction_date": null, "completion_date": null, "remarks": null, "geometry_type": "Point" }, "geometry": { "type": "Point", "coordinates": [ 88.811608, 26.81271 ] } },
{ "type": "Feature", "properties": { "id": null, "scheme": "BEUP", "project_code": "BEUP-21-NKT-85-60", "name": "Solar Street Light-Near Dhulu Rai house", "mp_mla": "Shri. Puna Bhengra, MLA", "district": "Jalpaiguri", "block": "Matiali ", "gp": "Matiali Batabari No II ", "village": null, "work_type": "Solar Street Light", "amount": null, "status": "Proposed", "sanction_date": null, "completion_date": null, "remarks": null, "geometry_type": "Point" }, "geometry": { "type": "Point", "coordinates": [ 88.815894, 26.811992 ] } },
{ "type": "Feature", "properties": { "id": null, "scheme": "BEUP", "project_code": "BEUP-21-NKT-85-61", "name": "Solar Street Light-Near Mahamat Rahaman house to school para at part no. 21/93", "mp_mla": "Shri. Puna Bhengra, MLA", "district": "Jalpaiguri", "block": "Matiali ", "gp": "Matiali Batabari No II ", "village": null, "work_type": "Solar Street Light", "amount": null, "status": "Proposed", "sanction_date": null, "completion_date": null, "remarks": null, "geometry_type": "Point" }, "geometry": { "type": "Point", "coordinates": [ 88.798554, 26.821493 ] } },
{ "type": "Feature", "properties": { "id": null, "scheme": "BEUP", "project_code": "BEUP-21-NKT-85-62", "name": "Solar Street Light-Near Horen Da house 2 NO GP", "mp_mla": "Shri. Puna Bhengra, MLA", "district": "Jalpaiguri", "block": "Matiali ", "gp": "Matiali Batabari No II ", "village": null, "work_type": "Solar Street Light", "amount": null, "status": "Proposed", "sanction_date": null, "completion_date": null, "remarks": null, "geometry_type": "Point" }, "geometry": { "type": "Point", "coordinates": [ 88.81061, 26.811936 ] } },
{ "type": "Feature", "properties": { "id": null, "scheme": "BEUP", "project_code": "BEUP-21-NKT-85-63", "name": "Solar Street Light-Near Binita Majhi house 2 NO GP", "mp_mla": "Shri. Puna Bhengra, MLA", "district": "Jalpaiguri", "block": "Matiali ", "gp": "Matiali Batabari No II ", "village": null, "work_type": "Solar Street Light", "amount": null, "status": "Proposed", "sanction_date": null, "completion_date": null, "remarks": null, "geometry_type": "Point" }, "geometry": { "type": "Point", "coordinates": [ 88.806289, 26.81208 ] } },
{ "type": "Feature", "properties": { "id": null, "scheme": "BEUP", "project_code": "BEUP-21-NKT-85-64", "name": "Solar Street Light-Near Amarul Haque 2 No GP", "mp_mla": "Shri. Puna Bhengra, MLA", "district": "Jalpaiguri", "block": "Matiali ", "gp": "Matiali Batabari No II ", "village": null, "work_type": "Solar Street Light", "amount": null, "status": "Proposed", "sanction_date": null, "completion_date": null, "remarks": "same place 21", "geometry_type": "Point" }, "geometry": { "type": "Point", "coordinates": [ 88.814857, 26.81346 ] } },
{ "type": "Feature", "properties": { "id": null, "scheme": "BEUP", "project_code": "BEUP-21-NKT-85-65", "name": "Solar Street Light-Near Mahabul Hasan house to School para at part no. 21/93", "mp_mla": "Shri. Puna Bhengra, MLA", "district": "Jalpaiguri", "block": "Matiali ", "gp": "Matiali Batabari No II ", "village": null, "work_type": "Solar Street Light", "amount": null, "status": "Proposed", "sanction_date": null, "completion_date": null, "remarks": null, "geometry_type": "Point" }, "geometry": { "type": "Point", "coordinates": [ 88.80225, 26.820289 ] } },
{ "type": "Feature", "properties": { "id": null, "scheme": "BEUP", "project_code": "BEUP-21-NKT-85-66", "name": "Solar Street Light-Near Mahakal Mandir temple at part 21/85", "mp_mla": "Shri. Puna Bhengra, MLA", "district": "Jalpaiguri", "block": "Matiali ", "gp": "Matiali Batabari No II ", "village": null, "work_type": "Solar Street Light", "amount": null, "status": "Proposed", "sanction_date": null, "completion_date": null, "remarks": null, "geometry_type": "Point" }, "geometry": { "type": "Point", "coordinates": [ 88.822933, 26.838217 ] } },
{ "type": "Feature", "properties": { "id": null, "scheme": "BEUP", "project_code": "BEUP-21-NKT-85-67", "name": "Solar Street Light-Near Binod oraon house at part no. 21/94", "mp_mla": "Shri. Puna Bhengra, MLA", "district": "Jalpaiguri", "block": "Matiali ", "gp": "Matiali Batabari No II ", "village": null, "work_type": "Solar Street Light", "amount": null, "status": "Proposed", "sanction_date": null, "completion_date": null, "remarks": null, "geometry_type": "Point" }, "geometry": { "type": "Point", "coordinates": [ 88.796714, 26.822049 ] } },
{ "type": "Feature", "properties": { "id": null, "scheme": "BEUP", "project_code": "BEUP-21-NKT-85-68", "name": "Solar Street Light-Near Chaitam Mahatma house to From Road at part no. 21/94", "mp_mla": "Shri. Puna Bhengra, MLA", "district": "Jalpaiguri", "block": "Matiali ", "gp": "Matiali Batabari No II ", "village": null, "work_type": "Solar Street Light", "amount": null, "status": "Proposed", "sanction_date": null, "completion_date": null, "remarks": null, "geometry_type": "Point" }, "geometry": { "type": "Point", "coordinates": [ 88.799788, 26.816505 ] } },
{ "type": "Feature", "properties": { "id": null, "scheme": "BEUP", "project_code": "BEUP-21-NKT-85-69", "name": "Solar Street Light-Near Bpa Mahamat house to Jafaikona at Part No. 21/94", "mp_mla": "Shri. Puna Bhengra, MLA", "district": "Jalpaiguri", "block": "Matiali ", "gp": "Matiali Batabari No II ", "village": null, "work_type": "Solar Street Light", "amount": null, "status": "Proposed", "sanction_date": null, "completion_date": null, "remarks": null, "geometry_type": "Point" }, "geometry": { "type": "Point", "coordinates": [ 88.800706, 26.807588 ] } },
{ "type": "Feature", "properties": { "id": null, "scheme": "BEUP", "project_code": "BEUP-21-NKT-85-70", "name": "Solar Street Light-Near Sanjay Rajgor house to post office para, al part no. 21/94", "mp_mla": "Shri. Puna Bhengra, MLA", "district": "Jalpaiguri", "block": "Matiali ", "gp": "Matiali Batabari No II ", "village": null, "work_type": "Solar Street Light", "amount": null, "status": "Proposed", "sanction_date": null, "completion_date": null, "remarks": null, "geometry_type": "Point" }, "geometry": { "type": "Point", "coordinates": [ 88.795834, 26.824014 ] } },
{ "type": "Feature", "properties": { "id": null, "scheme": "BEUP", "project_code": "BEUP-21-NKT-85-71", "name": "Solar Street Light-Near Senoth oraon house to Janta Para at Part no. 21/85", "mp_mla": "Shri. Puna Bhengra, MLA", "district": "Jalpaiguri", "block": "Matiali ", "gp": "Matiali Batabari No II ", "village": null, "work_type": "Solar Street Light", "amount": null, "status": "Proposed", "sanction_date": null, "completion_date": null, "remarks": null, "geometry_type": "Point" }, "geometry": { "type": "Point", "coordinates": [ 88.819614, 26.847833 ] } },
{ "type": "Feature", "properties": { "id": null, "scheme": "BEUP", "project_code": "BEUP-21-NKT-85-72", "name": "Solar Street Light-Near Jagarnath Ray house Chupre para at Part no. 21/94", "mp_mla": "Shri. Puna Bhengra, MLA", "district": "Jalpaiguri", "block": "Matiali ", "gp": "Matiali Batabari No II ", "village": null, "work_type": "Solar Street Light", "amount": null, "status": "Proposed", "sanction_date": null, "completion_date": null, "remarks": null, "geometry_type": "Point" }, "geometry": { "type": "Point", "coordinates": [ 88.801889, 26.810522 ] } },
{ "type": "Feature", "properties": { "id": null, "scheme": "BEUP", "project_code": "BEUP-21-NKT-85-73", "name": "Solar Street Light-Near Bikram oraon house at Part No. 21/94", "mp_mla": "Shri. Puna Bhengra, MLA", "district": "Jalpaiguri", "block": "Matiali ", "gp": "Matiali Batabari No II ", "village": null, "work_type": "Solar Street Light", "amount": null, "status": "Proposed", "sanction_date": null, "completion_date": null, "remarks": "nearest to 44", "geometry_type": "Point" }, "geometry": { "type": "Point", "coordinates": [ 88.800213, 26.8049 ] } },
{ "type": "Feature", "properties": { "id": null, "scheme": "BEUP", "project_code": "BEUP-21-NKT-85-74", "name": "Solar Street Light-Near Bishnu Ray house to Kolabari Basti at part no. 21/85", "mp_mla": "Shri. Puna Bhengra, MLA", "district": "Jalpaiguri", "block": "Matiali ", "gp": "Matiali Batabari No II ", "village": null, "work_type": "Solar Street Light", "amount": null, "status": "Proposed", "sanction_date": null, "completion_date": null, "remarks": null, "geometry_type": "Point" }, "geometry": { "type": "Point", "coordinates": [ 88.820006, 26.837484 ] } },
{ "type": "Feature", "properties": { "id": null, "scheme": "BEUP", "project_code": "BEUP-21-NKT-85-75", "name": "Solar Street Light-Near Soraf munda house to naindo para at part no. 21/85", "mp_mla": "Shri. Puna Bhengra, MLA", "district": "Jalpaiguri", "block": "Matiali ", "gp": "Matiali Batabari No II ", "village": null, "work_type": "Solar Street Light", "amount": null, "status": "Proposed", "sanction_date": null, "completion_date": null, "remarks": null, "geometry_type": "Point" }, "geometry": { "type": "Point", "coordinates": [ 88.821308, 26.843109 ] } },
{ "type": "Feature", "properties": { "id": null, "scheme": "BEUP", "project_code": "BEUP-21-NKT-85-76", "name": "Solar Street Light-Near Maghaya Oraon house to Sukhu dhura at part no 21/84", "mp_mla": "Shri. Puna Bhengra, MLA", "district": "Jalpaiguri", "block": "Matiali ", "gp": "Matiali Batabari No II ", "village": null, "work_type": "Solar Street Light", "amount": null, "status": "Proposed", "sanction_date": null, "completion_date": null, "remarks": null, "geometry_type": "Point" }, "geometry": { "type": "Point", "coordinates": [ 88.810128, 26.846267 ] } },
{ "type": "Feature", "properties": { "id": null, "scheme": "BEUP", "project_code": "BEUP-21-NKT-85-77", "name": "Solar Street Light-Near Maonoj Ray house to Kayet Para at part no. 21/91", "mp_mla": "Shri. Puna Bhengra, MLA", "district": "Jalpaiguri", "block": "Matiali ", "gp": "Matiali Batabari No II ", "village": null, "work_type": "Solar Street Light", "amount": null, "status": "Proposed", "sanction_date": null, "completion_date": null, "remarks": null, "geometry_type": "Point" }, "geometry": { "type": "Point", "coordinates": [ 88.80978, 26.806556 ] } },
{ "type": "Feature", "properties": { "id": null, "scheme": "BEUP", "project_code": "BEUP-21-NKT-85-78", "name": "Solar Street Light-Near purno dev roy house to school para at part no 21/84", "mp_mla": "Shri. Puna Bhengra, MLA", "district": "Jalpaiguri", "block": "Matiali ", "gp": "Matiali Batabari No II ", "village": null, "work_type": "Solar Street Light", "amount": null, "status": "Proposed", "sanction_date": null, "completion_date": null, "remarks": null, "geometry_type": "Point" }, "geometry": { "type": "Point", "coordinates": [ 88.815655, 26.837993 ] } },
{ "type": "Feature", "properties": { "id": null, "scheme": "BEUP", "project_code": "BEUP-21-NKT-85-79", "name": "Solar Street Light-Near Bistoo ray house to beng para at part no 21/94", "mp_mla": "Shri. Puna Bhengra, MLA", "district": "Jalpaiguri", "block": "Matiali ", "gp": "Matiali Batabari No II ", "village": null, "work_type": "Solar Street Light", "amount": null, "status": "Proposed", "sanction_date": null, "completion_date": null, "remarks": null, "geometry_type": "Point" }, "geometry": { "type": "Point", "coordinates": [ 88.792215, 26.815662 ] } },
{ "type": "Feature", "properties": { "id": null, "scheme": "BEUP", "project_code": "BEUP-21-NKT-85-80", "name": "Solar Street Light-Near Gopal Chhetri house to Murti forest river at part no 21/87", "mp_mla": "Shri. Puna Bhengra, MLA", "district": "Jalpaiguri", "block": "Nagrakata ", "gp": "Matiali Batabari No II ", "village": null, "work_type": "Solar Street Light", "amount": null, "status": "Proposed", "sanction_date": null, "completion_date": null, "remarks": "Sulkapara GP of NKT BLOCK", "geometry_type": "Point" }, "geometry": { "type": "Point", "coordinates": [ 88.825855, 26.839582 ] } },
{ "type": "Feature", "properties": { "id": null, "scheme": "BEUP", "project_code": "BEUP-21-NKT-85-81", "name": "Solar Street Light-Near Promishwar roy house to Bhandani para at part no 21/91", "mp_mla": "Shri. Puna Bhengra, MLA", "district": "Jalpaiguri", "block": "Matiali ", "gp": "Matiali Batabari No II ", "village": null, "work_type": "Solar Street Light", "amount": null, "status": "Proposed", "sanction_date": null, "completion_date": null, "remarks": null, "geometry_type": "Point" }, "geometry": { "type": "Point", "coordinates": [ 88.806004, 26.813325 ] } },
{ "type": "Feature", "properties": { "id": null, "scheme": "BEUP", "project_code": "BEUP-21-NKT-85-82", "name": "Solar Street Light-Near Sorif Md house to Panchayat para 2 no GP", "mp_mla": "Shri. Puna Bhengra, MLA", "district": "Jalpaiguri", "block": "Matiali ", "gp": "Matiali Batabari No II ", "village": null, "work_type": "Solar Street Light", "amount": null, "status": "Proposed", "sanction_date": null, "completion_date": null, "remarks": null, "geometry_type": "Point" }, "geometry": { "type": "Point", "coordinates": [ 88.821219, 26.815798 ] } },
{ "type": "Feature", "properties": { "id": null, "scheme": "BEUP", "project_code": "BEUP-21-NKT-85-83", "name": "Solar Street Light-Near Sihain Parimal house to Holdiya para at part no 21/88", "mp_mla": "Shri. Puna Bhengra, MLA", "district": "Jalpaiguri", "block": "Matiali ", "gp": "Matiali Batabari No II ", "village": null, "work_type": "Solar Street Light", "amount": null, "status": "Proposed", "sanction_date": null, "completion_date": null, "remarks": null, "geometry_type": "Point" }, "geometry": { "type": "Point", "coordinates": [ 88.81638, 26.81836 ] } },
{ "type": "Feature", "properties": { "id": null, "scheme": "BEUP", "project_code": "BEUP-21-NKT-85-84", "name": "Solar Street Light-Ras Mandir Near Tilabari Basti BFP School part no 21/91", "mp_mla": "Shri. Puna Bhengra, MLA", "district": "Jalpaiguri", "block": "Matiali ", "gp": "Matiali Batabari No II ", "village": null, "work_type": "Solar Street Light", "amount": null, "status": "Proposed", "sanction_date": null, "completion_date": null, "remarks": null, "geometry_type": "Point" }, "geometry": { "type": "Point", "coordinates": [ 88.801443, 26.808998 ] } },
{ "type": "Feature", "properties": { "id": null, "scheme": "BEUP", "project_code": "BEUP-21-NKT-85-85", "name": "Solar Street Light-Near Subhash Roy house to Kayet para 2 no gp", "mp_mla": "Shri. Puna Bhengra, MLA", "district": "Jalpaiguri", "block": "Matiali ", "gp": "Matiali Batabari No II ", "village": null, "work_type": "Solar Street Light", "amount": null, "status": "Proposed", "sanction_date": null, "completion_date": null, "remarks": null, "geometry_type": "Point" }, "geometry": { "type": "Point", "coordinates": [ 88.810328, 26.806922 ] } }
]
}
